LEMUR-2-DEMBITZ         
1 42842U 17042T   26068.47492167  .00020231  00000+0  76561-3 0  9991
2 42842  97.3807 250.9241 0006961  17.1421 343.0051 15.26947128473114
STARLINK-30998          
1 58513U 23191F   26068.45569161  .00008137  00000+0  31234-3 0  9991
2 58513  43.0003 104.9154 0001083 269.4650  90.6078 15.26777394125461
